start=new Date('2022-01-01T00:00:00.000Z').valueOf();
sats=[{"NORAD_CAT_ID":"47986","MEAN_ELEMENT_THEORY":"SGP4","TLE_LINE2":"2 47986  53.0269 237.3060 0010546 138.8615 325.8729 15.76995992  3708","LAUNCH_DATE":"2021-03-24","DECAY_DATE":null,"MEAN_MOTION_DOT":"0.00109486","OBJECT_ID":"2021-024K","COUNTRY_CODE":"US","ELEMENT_SET_NO":"999","APOAPSIS":"346.043","OBJECT_NAME":"STARLINK-2313","GP_ID":"192818612","TLE_LINE1":"1 47986U 21024K   21365.58334491  .00109486  00000-0  65436-3 0  9992","BSTAR":"0.00065436000000","SEMIMAJOR_AXIS":"6717.094","PERIOD":"91.313","REV_AT_EPOCH":"370","MEAN_ANOMALY":"325.8729","EPOCH":"2021-12-31T14:00:01.000224","TIME_SYSTEM":"UTC","CENTER_NAME":"EARTH","RA_OF_ASC_NODE":"237.3060","PERIAPSIS":"331.875","SITE":"AFETR","INCLINATION":"53.0269","OBJECT_TYPE":"PAYLOAD","ARG_OF_PERICENTER":"138.8615","REF_FRAME":"TEME","EPHEMERIS_TYPE":"0","FILE":"3255242","MEAN_MOTION":"15.76995992","CLASSIFICATION_TYPE":"U","RCS_SIZE":"LARGE","MEAN_MOTION_DDOT":"0.0000000000000","ECCENTRICITY":"0.00105460"},{"CENTER_NAME":"EARTH","PERIAPSIS":"509.228","RA_OF_ASC_NODE":"335.4469","INCLINATION":"53.0566","SITE":"AFETR","ARG_OF_PERICENTER":"53.6123","REF_FRAME":"TEME","OBJECT_TYPE":"PAYLOAD","EPHEMERIS_TYPE":"0","MEAN_MOTION":"15.18496648","FILE":"3255242","RCS_SIZE":"MEDIUM","MEAN_MOTION_DDOT":"0.0000000000000","ECCENTRICITY":"0.00016800","CLASSIFICATION_TYPE":"U","NORAD_CAT_ID":"47988","MEAN_MOTION_DOT":"0.00037348","DECAY_DATE":null,"LAUNCH_DATE":"2021-03-24","MEAN_ELEMENT_THEORY":"SGP4","TLE_LINE2":"2 47988  53.0566 335.4469 0001680  53.6123 306.5026 15.18496648 44363","ELEMENT_SET_NO":"999","OBJECT_ID":"2021-024M","COUNTRY_CODE":"US","APOAPSIS":"511.543","OBJECT_NAME":"STARLINK-2306","PERIOD":"94.831","GP_ID":"192818862","TLE_LINE1":"1 47988U 21024M   21365.32923784  .00037348  00000-0  17947-2 0  9995","BSTAR":"0.00179470000000","SEMIMAJOR_AXIS":"6888.520","REV_AT_EPOCH":"4436","MEAN_ANOMALY":"306.5026","EPOCH":"2021-12-31T07:54:06.149376","TIME_SYSTEM":"UTC"},{"APOAPSIS":"548.879","OBJECT_NAME":"STARLINK-2305","COUNTRY_CODE":"US","OBJECT_ID":"2021-024N","ELEMENT_SET_NO":"999","TLE_LINE2":"2 47989  53.0548 271.0338 0002278  51.1554  11.5408 15.06371200  3599","MEAN_ELEMENT_THEORY":"SGP4","LAUNCH_DATE":"2021-03-24","DECAY_DATE":null,"MEAN_MOTION_DOT":"0.00021512","NORAD_CAT_ID":"47989","TIME_SYSTEM":"UTC","EPOCH":"2021-12-31T14:00:01.000224","MEAN_ANOMALY":"11.5408","REV_AT_EPOCH":"359","SEMIMAJOR_AXIS":"6925.437","TLE_LINE1":"1 47989U 21024N   21365.58334491  .00021512  00000-0  14598-2 0  9990","BSTAR":"0.00145980000000","GP_ID":"192820114","PERIOD":"95.594","OBJECT_TYPE":"PAYLOAD","ARG_OF_PERICENTER":"51.1554","REF_FRAME":"TEME","SITE":"AFETR","INCLINATION":"53.0548","RA_OF_ASC_NODE":"271.0338","PERIAPSIS":"545.724","CENTER_NAME":"EARTH","CLASSIFICATION_TYPE":"U","ECCENTRICITY":"0.00022780","MEAN_MOTION_DDOT":"0.0000000000000","RCS_SIZE":"MEDIUM","FILE":"3255242","MEAN_MOTION":"15.06371200","EPHEMERIS_TYPE":"0"},{"EPOCH":"2021-12-31T14:00:01.000224","TIME_SYSTEM":"UTC","PERIOD":"95.594","TLE_LINE1":"1 47990U 21024P   21365.58334491  .00044871  00000-0  30144-2 0  9990","GP_ID":"192820352","BSTAR":"0.00301440000000","SEMIMAJOR_AXIS":"6925.434","REV_AT_EPOCH":"359","MEAN_ANOMALY":"252.2531","ELEMENT_SET_NO":"999","OBJECT_ID":"2021-024P","COUNTRY_CODE":"US","APOAPSIS":"548.420","OBJECT_NAME":"STARLINK-2307","NORAD_CAT_ID":"47990","DECAY_DATE":null,"LAUNCH_DATE":"2021-03-24","MEAN_MOTION_DOT":"0.00044871","TLE_LINE2":"2 47990  53.0504 271.0642 0001618  65.2774 252.2531 15.06372007  3595","MEAN_ELEMENT_THEORY":"SGP4","MEAN_MOTION":"15.06372007","FILE":"3255242","RCS_SIZE":"LARGE","MEAN_MOTION_DDOT":"0.0000000000000","ECCENTRICITY":"0.00016180","CLASSIFICATION_TYPE":"U","EPHEMERIS_TYPE":"0","INCLINATION":"53.0504","SITE":"AFETR","REF_FRAME":"TEME","ARG_OF_PERICENTER":"65.2774","OBJECT_TYPE":"PAYLOAD","CENTER_NAME":"EARTH","RA_OF_ASC_NODE":"271.0642","PERIAPSIS":"546.179"},{"EPHEMERIS_TYPE":"0","MEAN_MOTION":"15.04752045","FILE":"3255242","RCS_SIZE":"LARGE","ECCENTRICITY":"0.00019140","MEAN_MOTION_DDOT":"0.0000000000000","CLASSIFICATION_TYPE":"U","CENTER_NAME":"EARTH","PERIAPSIS":"550.942","RA_OF_ASC_NODE":"285.4307","INCLINATION":"53.0553","SITE":"AFETR","ARG_OF_PERICENTER":"57.8383","REF_FRAME":"TEME","OBJECT_TYPE":"PAYLOAD","PERIOD":"95.697","TLE_LINE1":"1 47991U 21024Q   21365.58334491  .00025982  00000-0  18360-2 0  9999","BSTAR":"0.00183600000000","GP_ID":"192819113","SEMIMAJOR_AXIS":"6930.404","REV_AT_EPOCH":"359","MEAN_ANOMALY":"157.7965","EPOCH":"2021-12-31T14:00:01.000224","TIME_SYSTEM":"UTC","NORAD_CAT_ID":"47991","DECAY_DATE":null,"MEAN_MOTION_DOT":"0.00025982","LAUNCH_DATE":"2021-03-24","MEAN_ELEMENT_THEORY":"SGP4","TLE_LINE2":"2 47991  53.0553 285.4307 0001914  57.8383 157.7965 15.04752045  3591","ELEMENT_SET_NO":"999","OBJECT_ID":"2021-024Q","COUNTRY_CODE":"US","OBJECT_NAME":"STARLINK-2279","APOAPSIS":"553.595"},{"EPOCH":"2021-12-31T14:00:01.000224","TIME_SYSTEM":"UTC","PERIOD":"95.593","SEMIMAJOR_AXIS":"6925.400","BSTAR":"0.00209610000000","TLE_LINE1":"1 47992U 21024R   21365.58334491  .00031064  00000-0  20961-2 0  9998","GP_ID":"192819363","MEAN_ANOMALY":"138.7931","REV_AT_EPOCH":"359","ELEMENT_SET_NO":"999","COUNTRY_CODE":"US","OBJECT_ID":"2021-024R","APOAPSIS":"548.656","OBJECT_NAME":"STARLINK-2229","NORAD_CAT_ID":"47992","DECAY_DATE":null,"LAUNCH_DATE":"2021-03-24","MEAN_MOTION_DOT":"0.00031064","TLE_LINE2":"2 47992  53.0556 281.0394 0002009  48.8738 138.7931 15.06383200  3590","MEAN_ELEMENT_THEORY":"SGP4","MEAN_MOTION":"15.06383200","FILE":"3255242","MEAN_MOTION_DDOT":"0.0000000000000","ECCENTRICITY":"0.00020090","RCS_SIZE":"LARGE","CLASSIFICATION_TYPE":"U","EPHEMERIS_TYPE":"0","INCLINATION":"53.0556","SITE":"AFETR","ARG_OF_PERICENTER":"48.8738","REF_FRAME":"TEME","OBJECT_TYPE":"PAYLOAD","CENTER_NAME":"EARTH","RA_OF_ASC_NODE":"281.0394","PERIAPSIS":"545.874"},{"MEAN_ELEMENT_THEORY":"SGP4","TLE_LINE2":"2 47993  53.0566 322.3251 0001671  70.4298 289.6871 15.06398132 44605","LAUNCH_DATE":"2021-03-24","DECAY_DATE":null,"MEAN_MOTION_DOT":"0.00000999","NORAD_CAT_ID":"47993","OBJECT_NAME":"STARLINK-2273","APOAPSIS":"548.377","COUNTRY_CODE":"US","OBJECT_ID":"2021-024S","ELEMENT_SET_NO":"999","MEAN_ANOMALY":"289.6871","REV_AT_EPOCH":"4460","SEMIMAJOR_AXIS":"6925.354","GP_ID":"192819614","TLE_LINE1":"1 47993U 21024S   21365.29907841  .00000999  00000-0  85985-4 0  9994","BSTAR":"0.00008598500000","PERIOD":"95.592","TIME_SYSTEM":"UTC","EPOCH":"2021-12-31T07:10:40.374624","RA_OF_ASC_NODE":"322.3251","PERIAPSIS":"546.062","CENTER_NAME":"EARTH","OBJECT_TYPE":"PAYLOAD","ARG_OF_PERICENTER":"70.4298","REF_FRAME":"TEME","SITE":"AFETR","INCLINATION":"53.0566","EPHEMERIS_TYPE":"0","CLASSIFICATION_TYPE":"U","MEAN_MOTION_DDOT":"0.0000000000000","ECCENTRICITY":"0.00016710","RCS_SIZE":"LARGE","FILE":"3255242","MEAN_MOTION":"15.06398132"},{"EPOCH":"2021-12-31T10:27:43.729920","TIME_SYSTEM":"UTC","PERIOD":"95.593","TLE_LINE1":"1 47994U 21024T   21365.43592280 -.00000189  00000-0  62251-5 0  9992","BSTAR":"0.00000622510000","GP_ID":"192819852","SEMIMAJOR_AXIS":"6925.369","REV_AT_EPOCH":"4435","MEAN_ANOMALY":"308.8901","ELEMENT_SET_NO":"999","OBJECT_ID":"2021-024T","COUNTRY_CODE":"US","APOAPSIS":"548.478","OBJECT_NAME":"STARLINK-2290","NORAD_CAT_ID":"47994","MEAN_MOTION_DOT":"-0.00000189","DECAY_DATE":null,"LAUNCH_DATE":"2021-03-24","MEAN_ELEMENT_THEORY":"SGP4","TLE_LINE2":"2 47994  53.0564 336.7014 0001796  51.2248 308.8901 15.06393402 44355","MEAN_MOTION":"15.06393402","FILE":"3255242","RCS_SIZE":"LARGE","MEAN_MOTION_DDOT":"0.0000000000000","ECCENTRICITY":"0.00017960","CLASSIFICATION_TYPE":"U","EPHEMERIS_TYPE":"0","INCLINATION":"53.0564","SITE":"AFETR","ARG_OF_PERICENTER":"51.2248","REF_FRAME":"TEME","OBJECT_TYPE":"PAYLOAD","CENTER_NAME":"EARTH","PERIAPSIS":"545.990","RA_OF_ASC_NODE":"336.7014"},{"FILE":"3255242","MEAN_MOTION":"15.06386817","CLASSIFICATION_TYPE":"U","RCS_SIZE":"LARGE","ECCENTRICITY":"0.00018700","MEAN_MOTION_DDOT":"0.0000000000000","EPHEMERIS_TYPE":"0","SITE":"AFETR","INCLINATION":"53.0571","OBJECT_TYPE":"PAYLOAD","ARG_OF_PERICENTER":"54.5066","REF_FRAME":"TEME","CENTER_NAME":"EARTH","PERIAPSIS":"545.959","RA_OF_ASC_NODE":"302.9896","EPOCH":"2021-12-31T03:34:21.243072","TIME_SYSTEM":"UTC","GP_ID":"192818613","TLE_LINE1":"1 47995U 21024U   21365.14885698 -.00002408  00000-0 -14285-3 0  9998","BSTAR":"-0.00014285000000","SEMIMAJOR_AXIS":"6925.389","PERIOD":"95.593","REV_AT_EPOCH":"4481","MEAN_ANOMALY":"305.6097","OBJECT_ID":"2021-024U","COUNTRY_CODE":"US","ELEMENT_SET_NO":"999","OBJECT_NAME":"STARLINK-2309","APOAPSIS":"548.549","NORAD_CAT_ID":"47995","MEAN_ELEMENT_THEORY":"SGP4","TLE_LINE2":"2 47995  53.0571 302.9896 0001870  54.5066 305.6097 15.06386817 44818","MEAN_MOTION_DOT":"-0.00002408","DECAY_DATE":null,"LAUNCH_DATE":"2021-03-24"},{"CENTER_NAME":"EARTH","RA_OF_ASC_NODE":"256.5184","PERIAPSIS":"462.946","INCLINATION":"53.0416","SITE":"AFETR","ARG_OF_PERICENTER":"71.2676","REF_FRAME":"TEME","OBJECT_TYPE":"PAYLOAD","EPHEMERIS_TYPE":"0","MEAN_MOTION":"15.33415583","FILE":"3255242","ECCENTRICITY":"0.00039260","MEAN_MOTION_DDOT":"0.0000000000000","RCS_SIZE":"LARGE","CLASSIFICATION_TYPE":"U","NORAD_CAT_ID":"47996","MEAN_MOTION_DOT":"0.00069421","DECAY_DATE":null,"LAUNCH_DATE":"2021-03-24","TLE_LINE2":"2 47996  53.0416 256.5184 0003926  71.2676 188.4185 15.33415583  3631","MEAN_ELEMENT_THEORY":"SGP4","ELEMENT_SET_NO":"999","COUNTRY_CODE":"US","OBJECT_ID":"2021-024V","OBJECT_NAME":"STARLINK-2260","APOAPSIS":"468.320","PERIOD":"93.908","SEMIMAJOR_AXIS":"6843.768","TLE_LINE1":"1 47996U 21024V   21365.58334491  .00069421  00000-0  21110-2 0  9997","BSTAR":"0.00211100000000","GP_ID":"192818863","MEAN_ANOMALY":"188.4185","REV_AT_EPOCH":"363","EPOCH":"2021-12-31T14:00:01.000224","TIME_SYSTEM":"UTC"}];
